[{"OBJECT_NAME":"STARLINK-3748","OBJECT_ID":"2022-041G","EPOCH":"2025-12-01T20:39:17.748576","MEAN_MOTION":15.08840678,"ECCENTRICITY":0.0001437,"INCLINATION":53.216,"RA_OF_ASC_NODE":188.2963,"ARG_OF_PERICENTER":88.8796,"MEAN_ANOMALY":271.236,"EPHEMERIS_TYPE":0,"CLASSIFICATION_TYPE":"U","NORAD_CAT_ID":52267,"ELEMENT_SET_NO":999,"REV_AT_EPOCH":19959,"BSTAR":5.6633e-5,"MEAN_MOTION_DOT":6.13e-6,"MEAN_MOTION_DDOT":0},{"OBJECT_NAME":"STARLINK-3746","OBJECT_ID":"2022-041H","EPOCH":"2025-12-01T20:12:47.363040","MEAN_MOTION":15.08839476,"ECCENTRICITY":0.0001482,"INCLINATION":53.2162,"RA_OF_ASC_NODE":188.2982,"ARG_OF_PERICENTER":87.6369,"MEAN_ANOMALY":272.4793,"EPHEMERIS_TYPE":0,"CLASSIFICATION_TYPE":"U","NORAD_CAT_ID":52268,"ELEMENT_SET_NO":999,"REV_AT_EPOCH":19959,"BSTAR":5.4866e-5,"MEAN_MOTION_DOT":5.85e-6,"MEAN_MOTION_DDOT":0},{"OBJECT_NAME":"STARLINK-3791","OBJECT_ID":"2022-041J","EPOCH":"2025-12-01T18:58:37.104672","MEAN_MOTION":15.08835742,"ECCENTRICITY":0.000161,"INCLINATION":53.2169,"RA_OF_ASC_NODE":188.6051,"ARG_OF_PERICENTER":87.9662,"MEAN_ANOMALY":272.1515,"EPHEMERIS_TYPE":0,"CLASSIFICATION_TYPE":"U","NORAD_CAT_ID":52269,"ELEMENT_SET_NO":999,"REV_AT_EPOCH":19958,"BSTAR":1.3562e-5,"MEAN_MOTION_DOT":-7.2e-7,"MEAN_MOTION_DDOT":0},{"OBJECT_NAME":"STARLINK-3804","OBJECT_ID":"2022-041K","EPOCH":"2025-12-01T20:23:22.710624","MEAN_MOTION":15.08862222,"ECCENTRICITY":0.00015,"INCLINATION":53.217,"RA_OF_ASC_NODE":188.3703,"ARG_OF_PERICENTER":99.2075,"MEAN_ANOMALY":260.9087,"EPHEMERIS_TYPE":0,"CLASSIFICATION_TYPE":"U","NORAD_CAT_ID":52270,"ELEMENT_SET_NO":999,"REV_AT_EPOCH":19959,"BSTAR":0.00026095,"MEAN_MOTION_DOT":3.87e-5,"MEAN_MOTION_DDOT":0},{"OBJECT_NAME":"STARLINK-3788","OBJECT_ID":"2022-041L","EPOCH":"2025-12-01T20:28:42.070944","MEAN_MOTION":15.08838004,"ECCENTRICITY":0.0001502,"INCLINATION":53.2159,"RA_OF_ASC_NODE":188.3232,"ARG_OF_PERICENTER":89.1827,"MEAN_ANOMALY":270.9337,"EPHEMERIS_TYPE":0,"CLASSIFICATION_TYPE":"U","NORAD_CAT_ID":52271,"ELEMENT_SET_NO":999,"REV_AT_EPOCH":19959,"BSTAR":8.4409e-5,"MEAN_MOTION_DOT":1.056e-5,"MEAN_MOTION_DDOT":0},{"OBJECT_NAME":"STARLINK-3781","OBJECT_ID":"2022-041M","EPOCH":"2025-12-01T20:19:31.251072","MEAN_MOTION":15.08828178,"ECCENTRICITY":0.0001391,"INCLINATION":53.2155,"RA_OF_ASC_NODE":188.3926,"ARG_OF_PERICENTER":84.5124,"MEAN_ANOMALY":275.6027,"EPHEMERIS_TYPE":0,"CLASSIFICATION_TYPE":"U","NORAD_CAT_ID":52272,"ELEMENT_SET_NO":999,"REV_AT_EPOCH":19959,"BSTAR":-0.00016908,"MEAN_MOTION_DOT":-2.977e-5,"MEAN_MOTION_DDOT":0},{"OBJECT_NAME":"STARLINK-3782","OBJECT_ID":"2022-041N","EPOCH":"2025-12-01T19:38:28.767264","MEAN_MOTION":15.08838373,"ECCENTRICITY":0.0001477,"INCLINATION":53.2168,"RA_OF_ASC_NODE":178.8656,"ARG_OF_PERICENTER":69.9561,"MEAN_ANOMALY":290.159,"EPHEMERIS_TYPE":0,"CLASSIFICATION_TYPE":"U","NORAD_CAT_ID":52273,"ELEMENT_SET_NO":999,"REV_AT_EPOCH":19972,"BSTAR":0.00011587,"MEAN_MOTION_DOT":1.557e-5,"MEAN_MOTION_DDOT":0},{"OBJECT_NAME":"STARLINK-3790","OBJECT_ID":"2022-041P","EPOCH":"2025-12-01T20:07:31.528704","MEAN_MOTION":15.08823413,"ECCENTRICITY":0.0001989,"INCLINATION":53.2147,"RA_OF_ASC_NODE":188.3914,"ARG_OF_PERICENTER":94.8404,"MEAN_ANOMALY":265.2815,"EPHEMERIS_TYPE":0,"CLASSIFICATION_TYPE":"U","NORAD_CAT_ID":52274,"ELEMENT_SET_NO":999,"REV_AT_EPOCH":19959,"BSTAR":-0.00017758,"MEAN_MOTION_DOT":-3.112e-5,"MEAN_MOTION_DDOT":0},{"OBJECT_NAME":"STARLINK-3784","OBJECT_ID":"2022-041Q","EPOCH":"2025-12-01T20:18:06.085728","MEAN_MOTION":15.08838052,"ECCENTRICITY":0.0001447,"INCLINATION":53.2164,"RA_OF_ASC_NODE":188.3579,"ARG_OF_PERICENTER":88.0971,"MEAN_ANOMALY":272.0187,"EPHEMERIS_TYPE":0,"CLASSIFICATION_TYPE":"U","NORAD_CAT_ID":52275,"ELEMENT_SET_NO":999,"REV_AT_EPOCH":19959,"BSTAR":-5.7971e-7,"MEAN_MOTION_DOT":-2.97e-6,"MEAN_MOTION_DDOT":0},{"OBJECT_NAME":"STARLINK-3778","OBJECT_ID":"2022-041R","EPOCH":"2025-12-01T20:02:12.323040","MEAN_MOTION":15.08836682,"ECCENTRICITY":0.0001715,"INCLINATION":53.2164,"RA_OF_ASC_NODE":188.4054,"ARG_OF_PERICENTER":92.508,"MEAN_ANOMALY":267.6108,"EPHEMERIS_TYPE":0,"CLASSIFICATION_TYPE":"U","NORAD_CAT_ID":52276,"ELEMENT_SET_NO":999,"REV_AT_EPOCH":19959,"BSTAR":5.7025e-5,"MEAN_MOTION_DOT":6.2e-6,"MEAN_MOTION_DDOT":0},{"OBJECT_NAME":"STARLINK-3780","OBJECT_ID":"2022-041T","EPOCH":"2025-12-01T19:56:54.378816","MEAN_MOTION":15.08836829,"ECCENTRICITY":0.0001712,"INCLINATION":53.2158,"RA_OF_ASC_NODE":188.4236,"ARG_OF_PERICENTER":88.4721,"MEAN_ANOMALY":271.6467,"EPHEMERIS_TYPE":0,"CLASSIFICATION_TYPE":"U","NORAD_CAT_ID":52278,"ELEMENT_SET_NO":999,"REV_AT_EPOCH":19959,"BSTAR":2.9423e-5,"MEAN_MOTION_DOT":1.8e-6,"MEAN_MOTION_DDOT":0},{"OBJECT_NAME":"STARLINK-3764","OBJECT_ID":"2022-041V","EPOCH":"2025-12-01T19:41:00.160800","MEAN_MOTION":15.08840106,"ECCENTRICITY":0.0001523,"INCLINATION":53.2159,"RA_OF_ASC_NODE":188.4729,"ARG_OF_PERICENTER":98.3845,"MEAN_ANOMALY":261.732,"EPHEMERIS_TYPE":0,"CLASSIFICATION_TYPE":"U","NORAD_CAT_ID":52280,"ELEMENT_SET_NO":999,"REV_AT_EPOCH":19959,"BSTAR":2.0469e-5,"MEAN_MOTION_DOT":3.8e-7,"MEAN_MOTION_DDOT":0},{"OBJECT_NAME":"STARLINK-3779","OBJECT_ID":"2022-041W","EPOCH":"2025-12-01T20:03:34.917120","MEAN_MOTION":15.08840753,"ECCENTRICITY":0.0001487,"INCLINATION":53.2164,"RA_OF_ASC_NODE":188.4029,"ARG_OF_PERICENTER":91.6419,"MEAN_ANOMALY":268.4744,"EPHEMERIS_TYPE":0,"CLASSIFICATION_TYPE":"U","NORAD_CAT_ID":52281,"ELEMENT_SET_NO":999,"REV_AT_EPOCH":19959,"BSTAR":1.7974e-5,"MEAN_MOTION_DOT":-2.0e-8,"MEAN_MOTION_DDOT":0},{"OBJECT_NAME":"STARLINK-3783","OBJECT_ID":"2022-041X","EPOCH":"2025-12-01T19:31:44.232096","MEAN_MOTION":15.08833737,"ECCENTRICITY":0.0001362,"INCLINATION":53.2159,"RA_OF_ASC_NODE":178.5042,"ARG_OF_PERICENTER":93.773,"MEAN_ANOMALY":266.3418,"EPHEMERIS_TYPE":0,"CLASSIFICATION_TYPE":"U","NORAD_CAT_ID":52282,"ELEMENT_SET_NO":999,"REV_AT_EPOCH":19972,"BSTAR":6.3861e-7,"MEAN_MOTION_DOT":-2.78e-6,"MEAN_MOTION_DDOT":0},{"OBJECT_NAME":"STARLINK-3789","OBJECT_ID":"2022-041Y","EPOCH":"2025-12-01T19:51:36.185760","MEAN_MOTION":15.08837642,"ECCENTRICITY":0.0002009,"INCLINATION":53.2169,"RA_OF_ASC_NODE":188.4398,"ARG_OF_PERICENTER":94.9565,"MEAN_ANOMALY":265.1656,"EPHEMERIS_TYPE":0,"CLASSIFICATION_TYPE":"U","NORAD_CAT_ID":52283,"ELEMENT_SET_NO":999,"REV_AT_EPOCH":19959,"BSTAR":2.1188e-5,"MEAN_MOTION_DOT":4.9e-7,"MEAN_MOTION_DDOT":0},{"OBJECT_NAME":"STARLINK-3561","OBJECT_ID":"2022-041Z","EPOCH":"2025-12-01T19:21:08.203680","MEAN_MOTION":15.08834627,"ECCENTRICITY":0.0001752,"INCLINATION":53.2167,"RA_OF_ASC_NODE":178.5355,"ARG_OF_PERICENTER":96.1207,"MEAN_ANOMALY":263.9985,"EPHEMERIS_TYPE":0,"CLASSIFICATION_TYPE":"U","NORAD_CAT_ID":52284,"ELEMENT_SET_NO":999,"REV_AT_EPOCH":19972,"BSTAR":5.7676e-5,"MEAN_MOTION_DOT":6.3e-6,"MEAN_MOTION_DDOT":0},{"OBJECT_NAME":"STARLINK-3802","OBJECT_ID":"2022-041AB","EPOCH":"2025-12-01T20:45:56.737728","MEAN_MOTION":15.08823317,"ECCENTRICITY":0.0001172,"INCLINATION":53.2173,"RA_OF_ASC_NODE":178.2741,"ARG_OF_PERICENTER":83.4696,"MEAN_ANOMALY":276.6429,"EPHEMERIS_TYPE":0,"CLASSIFICATION_TYPE":"U","NORAD_CAT_ID":52286,"ELEMENT_SET_NO":999,"REV_AT_EPOCH":19973,"BSTAR":-7.4453e-5,"MEAN_MOTION_DOT":-1.472e-5,"MEAN_MOTION_DDOT":0}]
