STARLINK-3748           
1 52267U 22041G   25335.86062209  .00000613  00000+0  56633-4 0  9998
2 52267  53.2160 188.2963 0001437  88.8796 271.2360 15.08840678199590
STARLINK-3746           
1 52268U 22041H   25335.84221485  .00000585  00000+0  54866-4 0  9994
2 52268  53.2162 188.2982 0001482  87.6369 272.4793 15.08839476199594
STARLINK-3791           
1 52269U 22041J   25335.79070723 -.00000072  00000+0  13562-4 0  9996
2 52269  53.2169 188.6051 0001610  87.9662 272.1515 15.08835742199585
STARLINK-3804           
1 52270U 22041K   25335.84956841  .00003870  00000+0  26095-3 0  9990
2 52270  53.2170 188.3703 0001500  99.2075 260.9087 15.08862222199595
STARLINK-3788           
1 52271U 22041L   25335.85326471  .00001056  00000+0  84409-4 0  9990
2 52271  53.2159 188.3232 0001502  89.1827 270.9337 15.08838004199595
STARLINK-3781           
1 52272U 22041M   25335.84688948 -.00002977  00000+0 -16908-3 0  9993
2 52272  53.2155 188.3926 0001391  84.5124 275.6027 15.08828178199596
STARLINK-3782           
1 52273U 22041N   25335.81838851  .00001557  00000+0  11587-3 0  9990
2 52273  53.2168 178.8656 0001477  69.9561 290.1590 15.08838373199722
STARLINK-3790           
1 52274U 22041P   25335.83855936 -.00003112  00000+0 -17758-3 0  9993
2 52274  53.2147 188.3914 0001989  94.8404 265.2815 15.08823413199591
STARLINK-3784           
1 52275U 22041Q   25335.84590377 -.00000297  00000+0 -57971-6 0  9995
2 52275  53.2164 188.3579 0001447  88.0971 272.0187 15.08838052199594
STARLINK-3778           
1 52276U 22041R   25335.83486485  .00000620  00000+0  57025-4 0  9995
2 52276  53.2164 188.4054 0001715  92.5080 267.6108 15.08836682199593
STARLINK-3780           
1 52278U 22041T   25335.83118494  .00000180  00000+0  29423-4 0  9991
2 52278  53.2158 188.4236 0001712  88.4721 271.6467 15.08836829199599
STARLINK-3764           
1 52280U 22041V   25335.82014075  .00000038  00000+0  20469-4 0  9996
2 52280  53.2159 188.4729 0001523  98.3845 261.7320 15.08840106199598
STARLINK-3779           
1 52281U 22041W   25335.83582080 -.00000002  00000+0  17974-4 0  9993
2 52281  53.2164 188.4029 0001487  91.6419 268.4744 15.08840753199592
STARLINK-3783           
1 52282U 22041X   25335.81370639 -.00000278  00000+0  63861-6 0  9990
2 52282  53.2159 178.5042 0001362  93.7730 266.3418 15.08833737199727
STARLINK-3789           
1 52283U 22041Y   25335.82750215  .00000049  00000+0  21188-4 0  9993
2 52283  53.2169 188.4398 0002009  94.9565 265.1656 15.08837642199596
STARLINK-3561           
1 52284U 22041Z   25335.80634495  .00000630  00000+0  57676-4 0  9990
2 52284  53.2167 178.5355 0001752  96.1207 263.9985 15.08834627199725
STARLINK-3802           
1 52286U 22041AB  25335.86524002 -.00001472  00000+0 -74453-4 0  9999
2 52286  53.2173 178.2741 0001172  83.4696 276.6429 15.08823317199736
